{
"type": "FeatureCollection",
"name": "PK_segments",
"crs": { "type": "name", "properties": { "name": "urn:ogc:def:crs:EPSG::25833" } },
"features": [
{ "type": "Feature", "properties": { "id": null, "segment": "veg" }, "geometry": { "type": "MultiPolygon", "coordinates": [ [ [ [ 456068.831580528640188, 4942929.476262021809816 ], [ 456498.531249999767169, 4942928.754807692952454 ], [ 456499.00240384589415, 4942615.908653846941888 ], [ 456491.935096153640188, 4942611.668269231915474 ], [ 456486.281249999767169, 4942610.254807692952454 ], [ 456473.560096153640188, 4942605.543269231915474 ], [ 456465.07932692283066, 4942603.658653846941888 ], [ 456452.358173076703679, 4942603.658653846941888 ], [ 456439.165865384391509, 4942606.485576923936605 ], [ 456426.915865384391509, 4942617.793269231915474 ], [ 456414.19471153820632, 4942634.283653846941888 ], [ 456402.415865384391509, 4942654.543269231915474 ], [ 456398.175480769015849, 4942662.081730769947171 ], [ 456390.165865384391509, 4942674.802884615957737 ], [ 456381.213942307455, 4942684.697115385904908 ], [ 456369.906249999767169, 4942713.437500000931323 ], [ 456360.01201923051849, 4942743.591346154920757 ], [ 456356.242788461328018, 4942753.956730769947171 ], [ 456354.358173076703679, 4942756.783653846941888 ], [ 456347.76201923051849, 4942761.024038462899625 ], [ 456343.52163461514283, 4942761.024038462899625 ], [ 456340.223557692079339, 4942757.72596153896302 ], [ 456336.45432692283066, 4942756.783653846941888 ], [ 456331.27163461514283, 4942755.841346154920757 ], [ 456328.44471153820632, 4942753.485576923936605 ], [ 456325.14663461514283, 4942747.831730769947171 ], [ 456320.906249999767169, 4942739.35096153896302 ], [ 456311.95432692283066, 4942730.870192308910191 ], [ 456297.81971153820632, 4942727.10096153896302 ], [ 456284.62740384589415, 4942726.158653846941888 ], [ 456272.37740384589415, 4942726.158653846941888 ], [ 456249.76201923051849, 4942733.697115385904908 ], [ 456234.685096153640188, 4942744.062500000931323 ], [ 456226.20432692283066, 4942756.783653846941888 ], [ 456219.608173076703679, 4942770.447115385904908 ], [ 456217.723557692079339, 4942778.927884615957737 ], [ 456215.838942307455, 4942785.524038462899625 ], [ 456210.656249999767169, 4942791.177884615957737 ], [ 456207.358173076703679, 4942794.47596153896302 ], [ 456203.588942307455, 4942797.302884615957737 ], [ 456201.233173076703679, 4942793.062500000931323 ], [ 456196.050480769015849, 4942789.293269231915474 ], [ 456194.165865384391509, 4942786.466346154920757 ], [ 456190.867788461328018, 4942784.581730769947171 ], [ 456187.56971153820632, 4942784.581730769947171 ], [ 456182.38701923051849, 4942787.408653846941888 ], [ 456177.675480769015849, 4942794.47596153896302 ], [ 456160.242788461328018, 4942810.024038462899625 ], [ 456154.588942307455, 4942818.504807692952454 ], [ 456143.75240384589415, 4942829.812500000931323 ], [ 456137.62740384589415, 4942835.937500000931323 ], [ 456130.560096153640188, 4942845.831730769947171 ], [ 456121.608173076703679, 4942857.13942307792604 ], [ 456117.367788461328018, 4942864.677884615957737 ], [ 456107.94471153820632, 4942870.802884615957737 ], [ 456098.992788461328018, 4942878.812500000931323 ], [ 456094.281249999767169, 4942889.649038462899625 ], [ 456092.39663461514283, 4942901.899038462899625 ], [ 456088.156249999767169, 4942909.908653846941888 ], [ 456082.031249999767169, 4942915.562500000931323 ], [ 456074.492788461328018, 4942922.629807692952454 ], [ 456068.831580528640188, 4942929.476262021809816 ] ] ] ] } },
{ "type": "Feature", "properties": { "id": null, "segment": "UW" }, "geometry": { "type": "MultiPolygon", "coordinates": [ [ [ [ 456498.700570913148113, 4942562.038837135769427 ], [ 456066.976412259449717, 4942562.833909250795841 ], [ 456065.636568509449717, 4942929.432091346010566 ], [ 456068.831580528640188, 4942929.476262021809816 ], [ 456074.492788461328018, 4942922.629807692952454 ], [ 456082.031249999767169, 4942915.562500000931323 ], [ 456088.156249999767169, 4942909.908653846941888 ], [ 456092.39663461514283, 4942901.899038462899625 ], [ 456094.281249999767169, 4942889.649038462899625 ], [ 456098.992788461328018, 4942878.812500000931323 ], [ 456107.94471153820632, 4942870.802884615957737 ], [ 456117.367788461328018, 4942864.677884615957737 ], [ 456121.608173076703679, 4942857.13942307792604 ], [ 456130.560096153640188, 4942845.831730769947171 ], [ 456137.62740384589415, 4942835.937500000931323 ], [ 456143.75240384589415, 4942829.812500000931323 ], [ 456154.588942307455, 4942818.504807692952454 ], [ 456160.242788461328018, 4942810.024038462899625 ], [ 456177.675480769015849, 4942794.47596153896302 ], [ 456182.38701923051849, 4942787.408653846941888 ], [ 456187.56971153820632, 4942784.581730769947171 ], [ 456190.867788461328018, 4942784.581730769947171 ], [ 456194.165865384391509, 4942786.466346154920757 ], [ 456196.050480769015849, 4942789.293269231915474 ], [ 456201.233173076703679, 4942793.062500000931323 ], [ 456203.588942307455, 4942797.302884615957737 ], [ 456207.358173076703679, 4942794.47596153896302 ], [ 456210.656249999767169, 4942791.177884615957737 ], [ 456215.838942307455, 4942785.524038462899625 ], [ 456217.723557692079339, 4942778.927884615957737 ], [ 456219.608173076703679, 4942770.447115385904908 ], [ 456226.20432692283066, 4942756.783653846941888 ], [ 456234.685096153640188, 4942744.062500000931323 ], [ 456249.76201923051849, 4942733.697115385904908 ], [ 456272.37740384589415, 4942726.158653846941888 ], [ 456284.62740384589415, 4942726.158653846941888 ], [ 456297.81971153820632, 4942727.10096153896302 ], [ 456311.95432692283066, 4942730.870192308910191 ], [ 456320.906249999767169, 4942739.35096153896302 ], [ 456325.14663461514283, 4942747.831730769947171 ], [ 456328.44471153820632, 4942753.485576923936605 ], [ 456331.27163461514283, 4942755.841346154920757 ], [ 456336.45432692283066, 4942756.783653846941888 ], [ 456340.223557692079339, 4942757.72596153896302 ], [ 456343.52163461514283, 4942761.024038462899625 ], [ 456347.76201923051849, 4942761.024038462899625 ], [ 456354.358173076703679, 4942756.783653846941888 ], [ 456356.242788461328018, 4942753.956730769947171 ], [ 456360.01201923051849, 4942743.591346154920757 ], [ 456369.906249999767169, 4942713.437500000931323 ], [ 456381.213942307455, 4942684.697115385904908 ], [ 456390.165865384391509, 4942674.802884615957737 ], [ 456398.175480769015849, 4942662.081730769947171 ], [ 456402.415865384391509, 4942654.543269231915474 ], [ 456414.19471153820632, 4942634.283653846941888 ], [ 456426.915865384391509, 4942617.793269231915474 ], [ 456439.165865384391509, 4942606.485576923936605 ], [ 456452.358173076703679, 4942603.658653846941888 ], [ 456465.07932692283066, 4942603.658653846941888 ], [ 456473.560096153640188, 4942605.543269231915474 ], [ 456486.281249999767169, 4942610.254807692952454 ], [ 456491.935096153640188, 4942611.668269231915474 ], [ 456499.00240384589415, 4942615.908653846941888 ], [ 456498.700570913148113, 4942562.038837135769427 ] ] ] ] } }
]
}
