{
    "type": "FeatureCollection",
    "name": "PK_segments",
    "crs": {
        "type": "name",
        "properties": {
            "name": "urn:ogc:def:crs:EPSG::25833"
        }
    },
    "features": [
        {
            "type": "Feature",
            "properties": {
                "id": null,
                "segment": "veg",
                "pipeline": "filters/lasground_default.json"
            },
            "geometry": {
                "type": "MultiPolygon",
                "coordinates": [
                    [
                        [
                            [
                                456068.83158052864,
                                4942929.476262022
                            ],
                            [
                                456498.53124999977,
                                4942928.754807693
                            ],
                            [
                                456499.0024038459,
                                4942615.908653847
                            ],
                            [
                                456491.93509615364,
                                4942611.668269232
                            ],
                            [
                                456486.28124999977,
                                4942610.254807693
                            ],
                            [
                                456473.56009615364,
                                4942605.543269232
                            ],
                            [
                                456465.07932692283,
                                4942603.658653847
                            ],
                            [
                                456452.3581730767,
                                4942603.658653847
                            ],
                            [
                                456439.1658653844,
                                4942606.485576924
                            ],
                            [
                                456426.9158653844,
                                4942617.793269232
                            ],
                            [
                                456414.1947115382,
                                4942634.283653847
                            ],
                            [
                                456402.4158653844,
                                4942654.543269232
                            ],
                            [
                                456398.175480769,
                                4942662.08173077
                            ],
                            [
                                456390.1658653844,
                                4942674.802884616
                            ],
                            [
                                456381.21394230745,
                                4942684.697115386
                            ],
                            [
                                456369.90624999977,
                                4942713.437500001
                            ],
                            [
                                456360.0120192305,
                                4942743.591346155
                            ],
                            [
                                456356.2427884613,
                                4942753.95673077
                            ],
                            [
                                456354.3581730767,
                                4942756.783653847
                            ],
                            [
                                456347.7620192305,
                                4942761.024038463
                            ],
                            [
                                456343.52163461514,
                                4942761.024038463
                            ],
                            [
                                456340.2235576921,
                                4942757.725961539
                            ],
                            [
                                456336.45432692283,
                                4942756.783653847
                            ],
                            [
                                456331.27163461514,
                                4942755.841346155
                            ],
                            [
                                456328.4447115382,
                                4942753.485576924
                            ],
                            [
                                456325.14663461514,
                                4942747.83173077
                            ],
                            [
                                456320.90624999977,
                                4942739.350961539
                            ],
                            [
                                456311.95432692283,
                                4942730.870192309
                            ],
                            [
                                456297.8197115382,
                                4942727.100961539
                            ],
                            [
                                456284.6274038459,
                                4942726.158653847
                            ],
                            [
                                456272.3774038459,
                                4942726.158653847
                            ],
                            [
                                456249.7620192305,
                                4942733.697115386
                            ],
                            [
                                456234.68509615364,
                                4942744.062500001
                            ],
                            [
                                456226.20432692283,
                                4942756.783653847
                            ],
                            [
                                456219.6081730767,
                                4942770.447115386
                            ],
                            [
                                456217.7235576921,
                                4942778.927884616
                            ],
                            [
                                456215.83894230745,
                                4942785.524038463
                            ],
                            [
                                456210.65624999977,
                                4942791.177884616
                            ],
                            [
                                456207.3581730767,
                                4942794.475961539
                            ],
                            [
                                456203.58894230745,
                                4942797.302884616
                            ],
                            [
                                456201.2331730767,
                                4942793.062500001
                            ],
                            [
                                456196.050480769,
                                4942789.293269232
                            ],
                            [
                                456194.1658653844,
                                4942786.466346155
                            ],
                            [
                                456190.8677884613,
                                4942784.58173077
                            ],
                            [
                                456187.5697115382,
                                4942784.58173077
                            ],
                            [
                                456182.3870192305,
                                4942787.408653847
                            ],
                            [
                                456177.675480769,
                                4942794.475961539
                            ],
                            [
                                456160.2427884613,
                                4942810.024038463
                            ],
                            [
                                456154.58894230745,
                                4942818.504807693
                            ],
                            [
                                456143.7524038459,
                                4942829.812500001
                            ],
                            [
                                456137.6274038459,
                                4942835.937500001
                            ],
                            [
                                456130.56009615364,
                                4942845.83173077
                            ],
                            [
                                456121.6081730767,
                                4942857.139423078
                            ],
                            [
                                456117.3677884613,
                                4942864.677884616
                            ],
                            [
                                456107.9447115382,
                                4942870.802884616
                            ],
                            [
                                456098.9927884613,
                                4942878.812500001
                            ],
                            [
                                456094.28124999977,
                                4942889.649038463
                            ],
                            [
                                456092.39663461514,
                                4942901.899038463
                            ],
                            [
                                456088.15624999977,
                                4942909.908653847
                            ],
                            [
                                456082.03124999977,
                                4942915.562500001
                            ],
                            [
                                456074.4927884613,
                                4942922.629807693
                            ],
                            [
                                456068.83158052864,
                                4942929.476262022
                            ]
                        ]
                    ]
                ]
            }
        },
        {
            "type": "Feature",
            "properties": {
                "id": null,
                "segment": "UW",
                "pipeline": "filters/lasground_default.json"
            },
            "geometry": {
                "type": "MultiPolygon",
                "coordinates": [
                    [
                        [
                            [
                                456498.70057091315,
                                4942562.038837136
                            ],
                            [
                                456066.97641225945,
                                4942562.833909251
                            ],
                            [
                                456065.63656850945,
                                4942929.432091346
                            ],
                            [
                                456068.83158052864,
                                4942929.476262022
                            ],
                            [
                                456074.4927884613,
                                4942922.629807693
                            ],
                            [
                                456082.03124999977,
                                4942915.562500001
                            ],
                            [
                                456088.15624999977,
                                4942909.908653847
                            ],
                            [
                                456092.39663461514,
                                4942901.899038463
                            ],
                            [
                                456094.28124999977,
                                4942889.649038463
                            ],
                            [
                                456098.9927884613,
                                4942878.812500001
                            ],
                            [
                                456107.9447115382,
                                4942870.802884616
                            ],
                            [
                                456117.3677884613,
                                4942864.677884616
                            ],
                            [
                                456121.6081730767,
                                4942857.139423078
                            ],
                            [
                                456130.56009615364,
                                4942845.83173077
                            ],
                            [
                                456137.6274038459,
                                4942835.937500001
                            ],
                            [
                                456143.7524038459,
                                4942829.812500001
                            ],
                            [
                                456154.58894230745,
                                4942818.504807693
                            ],
                            [
                                456160.2427884613,
                                4942810.024038463
                            ],
                            [
                                456177.675480769,
                                4942794.475961539
                            ],
                            [
                                456182.3870192305,
                                4942787.408653847
                            ],
                            [
                                456187.5697115382,
                                4942784.58173077
                            ],
                            [
                                456190.8677884613,
                                4942784.58173077
                            ],
                            [
                                456194.1658653844,
                                4942786.466346155
                            ],
                            [
                                456196.050480769,
                                4942789.293269232
                            ],
                            [
                                456201.2331730767,
                                4942793.062500001
                            ],
                            [
                                456203.58894230745,
                                4942797.302884616
                            ],
                            [
                                456207.3581730767,
                                4942794.475961539
                            ],
                            [
                                456210.65624999977,
                                4942791.177884616
                            ],
                            [
                                456215.83894230745,
                                4942785.524038463
                            ],
                            [
                                456217.7235576921,
                                4942778.927884616
                            ],
                            [
                                456219.6081730767,
                                4942770.447115386
                            ],
                            [
                                456226.20432692283,
                                4942756.783653847
                            ],
                            [
                                456234.68509615364,
                                4942744.062500001
                            ],
                            [
                                456249.7620192305,
                                4942733.697115386
                            ],
                            [
                                456272.3774038459,
                                4942726.158653847
                            ],
                            [
                                456284.6274038459,
                                4942726.158653847
                            ],
                            [
                                456297.8197115382,
                                4942727.100961539
                            ],
                            [
                                456311.95432692283,
                                4942730.870192309
                            ],
                            [
                                456320.90624999977,
                                4942739.350961539
                            ],
                            [
                                456325.14663461514,
                                4942747.83173077
                            ],
                            [
                                456328.4447115382,
                                4942753.485576924
                            ],
                            [
                                456331.27163461514,
                                4942755.841346155
                            ],
                            [
                                456336.45432692283,
                                4942756.783653847
                            ],
                            [
                                456340.2235576921,
                                4942757.725961539
                            ],
                            [
                                456343.52163461514,
                                4942761.024038463
                            ],
                            [
                                456347.7620192305,
                                4942761.024038463
                            ],
                            [
                                456354.3581730767,
                                4942756.783653847
                            ],
                            [
                                456356.2427884613,
                                4942753.95673077
                            ],
                            [
                                456360.0120192305,
                                4942743.591346155
                            ],
                            [
                                456369.90624999977,
                                4942713.437500001
                            ],
                            [
                                456381.21394230745,
                                4942684.697115386
                            ],
                            [
                                456390.1658653844,
                                4942674.802884616
                            ],
                            [
                                456398.175480769,
                                4942662.08173077
                            ],
                            [
                                456402.4158653844,
                                4942654.543269232
                            ],
                            [
                                456414.1947115382,
                                4942634.283653847
                            ],
                            [
                                456426.9158653844,
                                4942617.793269232
                            ],
                            [
                                456439.1658653844,
                                4942606.485576924
                            ],
                            [
                                456452.3581730767,
                                4942603.658653847
                            ],
                            [
                                456465.07932692283,
                                4942603.658653847
                            ],
                            [
                                456473.56009615364,
                                4942605.543269232
                            ],
                            [
                                456486.28124999977,
                                4942610.254807693
                            ],
                            [
                                456491.93509615364,
                                4942611.668269232
                            ],
                            [
                                456499.0024038459,
                                4942615.908653847
                            ],
                            [
                                456498.70057091315,
                                4942562.038837136
                            ]
                        ]
                    ]
                ]
            }
        }
    ]
}