{
"type": "FeatureCollection",
"name": "StA_segment",
"crs": { "type": "name", "properties": { "name": "urn:ogc:def:crs:EPSG::31256" } },
"features": [
{ "type": "Feature", "properties": { "id": null }, "geometry": { "type": "MultiPolygon", "coordinates": [ [ [ [ 19803.258364641667868, 312896.401456045685336 ], [ 20596.059728839401942, 312896.401456045685336 ], [ 20596.059728839401942, 312153.603840149356984 ], [ 19803.258364641667868, 312156.023376357450616 ], [ 19803.258364641667868, 312896.401456045685336 ] ] ] ] } }
]
}
