{"type": "FeatureCollection", "features": [{"type": "Feature", "geometry": {"type": "MultiPolygon", "coordinates": [[[[456068.831581, 4942929.476262], [456498.53125, 4942928.754808], [456499.002404, 4942615.908654], [456491.935096, 4942611.668269], [456486.28125, 4942610.254808], [456473.560096, 4942605.543269], [456465.079327, 4942603.658654], [456452.358173, 4942603.658654], [456439.165865, 4942606.485577], [456426.915865, 4942617.793269], [456414.194712, 4942634.283654], [456402.415865, 4942654.543269], [456398.175481, 4942662.081731], [456390.165865, 4942674.802885], [456381.213942, 4942684.697115], [456369.90625, 4942713.4375], [456360.012019, 4942743.591346], [456356.242788, 4942753.956731], [456354.358173, 4942756.783654], [456347.762019, 4942761.024038], [456343.521635, 4942761.024038], [456340.223558, 4942757.725962], [456336.454327, 4942756.783654], [456331.271635, 4942755.841346], [456328.444712, 4942753.485577], [456325.146635, 4942747.831731], [456320.90625, 4942739.350962], [456311.954327, 4942730.870192], [456297.819712, 4942727.100962], [456284.627404, 4942726.158654], [456272.377404, 4942726.158654], [456249.762019, 4942733.697115], [456234.685096, 4942744.0625], [456226.204327, 4942756.783654], [456219.608173, 4942770.447115], [456217.723558, 4942778.927885], [456215.838942, 4942785.524038], [456210.65625, 4942791.177885], [456207.358173, 4942794.475962], [456203.588942, 4942797.302885], [456201.233173, 4942793.0625], [456196.050481, 4942789.293269], [456194.165865, 4942786.466346], [456190.867788, 4942784.581731], [456187.569712, 4942784.581731], [456182.387019, 4942787.408654], [456177.675481, 4942794.475962], [456160.242788, 4942810.024038], [456154.588942, 4942818.504808], [456143.752404, 4942829.8125], [456137.627404, 4942835.9375], [456130.560096, 4942845.831731], [456121.608173, 4942857.139423], [456117.367788, 4942864.677885], [456107.944712, 4942870.802885], [456098.992788, 4942878.8125], [456094.28125, 4942889.649038], [456092.396635, 4942901.899038], [456088.15625, 4942909.908654], [456082.03125, 4942915.5625], [456074.492788, 4942922.629808], [456068.831581, 4942929.476262]]]]}, "properties": {"id": null, "segment": "veg", "pipeline_key": "segment", "pipeline": "da3ef59d40b2853b00710542a0dc72c7d2ddc9da", "pipeline_title": "Ground points over land"}}, {"type": "Feature", "geometry": {"type": "MultiPolygon", "coordinates": [[[[456498.700571, 4942562.038837], [456066.976412, 4942562.833909], [456065.636569, 4942929.432091], [456068.831581, 4942929.476262], [456074.492788, 4942922.629808], [456082.03125, 4942915.5625], [456088.15625, 4942909.908654], [456092.396635, 4942901.899038], [456094.28125, 4942889.649038], [456098.992788, 4942878.8125], [456107.944712, 4942870.802885], [456117.367788, 4942864.677885], [456121.608173, 4942857.139423], [456130.560096, 4942845.831731], [456137.627404, 4942835.9375], [456143.752404, 4942829.8125], [456154.588942, 4942818.504808], [456160.242788, 4942810.024038], [456177.675481, 4942794.475962], [456182.387019, 4942787.408654], [456187.569712, 4942784.581731], [456190.867788, 4942784.581731], [456194.165865, 4942786.466346], [456196.050481, 4942789.293269], [456201.233173, 4942793.0625], [456203.588942, 4942797.302885], [456207.358173, 4942794.475962], [456210.65625, 4942791.177885], [456215.838942, 4942785.524038], [456217.723558, 4942778.927885], [456219.608173, 4942770.447115], [456226.204327, 4942756.783654], [456234.685096, 4942744.0625], [456249.762019, 4942733.697115], [456272.377404, 4942726.158654], [456284.627404, 4942726.158654], [456297.819712, 4942727.100962], [456311.954327, 4942730.870192], [456320.90625, 4942739.350962], [456325.146635, 4942747.831731], [456328.444712, 4942753.485577], [456331.271635, 4942755.841346], [456336.454327, 4942756.783654], [456340.223558, 4942757.725962], [456343.521635, 4942761.024038], [456347.762019, 4942761.024038], [456354.358173, 4942756.783654], [456356.242788, 4942753.956731], [456360.012019, 4942743.591346], [456369.90625, 4942713.4375], [456381.213942, 4942684.697115], [456390.165865, 4942674.802885], [456398.175481, 4942662.081731], [456402.415865, 4942654.543269], [456414.194712, 4942634.283654], [456426.915865, 4942617.793269], [456439.165865, 4942606.485577], [456452.358173, 4942603.658654], [456465.079327, 4942603.658654], [456473.560096, 4942605.543269], [456486.28125, 4942610.254808], [456491.935096, 4942611.668269], [456499.002404, 4942615.908654], [456498.700571, 4942562.038837]]]]}, "properties": {"id": null, "segment": "UW", "pipeline_key": "segment", "pipeline": "0f94f36544761b2337ee37a7b41d160290486ed2", "pipeline_title": "Ground points in the water"}}]}