{
  "type": "FeatureCollection",
  "name": "StA_segment",
  "crs": {
    "type": "name",
    "properties": {
      "name": "urn:ogc:def:crs:EPSG::31256"
    }
  },
  "features": [
    {
      "type": "Feature",
      "properties": {
        "id": null,
        "pipeline": "0f94f36544761b2337ee37a7b41d160290486ed2",
        "pipeline_title": "Ground points in the water",
        "pipeline_key": "candidate_benchmark",
        "benchmark_filter_path": "data/output/ground_points_in_the_water.json"
      },
      "geometry": {
        "type": "MultiPolygon",
        "coordinates": [
          [
            [
              [
                19803.258364641668,
                312896.4014560457
              ],
              [
                20596.059728839402,
                312896.4014560457
              ],
              [
                20596.059728839402,
                312153.60384014936
              ],
              [
                19803.258364641668,
                312156.02337635745
              ],
              [
                19803.258364641668,
                312896.4014560457
              ]
            ]
          ]
        ]
      }
    }
  ]
}